[{"OBJECT_NAME":"ONEWEB-0629","OBJECT_ID":"2023-004AG","EPOCH":"2026-06-02T03:41:51.867456","MEAN_MOTION":13.1765097,"ECCENTRICITY":0.0002045,"INCLINATION":87.9143,"RA_OF_ASC_NODE":8.8609,"ARG_OF_PERICENTER":78.751,"MEAN_ANOMALY":281.3851,"EPHEMERIS_TYPE":0,"CLASSIFICATION_TYPE":"U","NORAD_CAT_ID":55170,"ELEMENT_SET_NO":999,"REV_AT_EPOCH":16560,"BSTAR":9.4146e-05,"MEAN_MOTION_DOT":4.9e-07,"MEAN_MOTION_DDOT":0.0},{"OBJECT_NAME":"ONEWEB-0631","OBJECT_ID":"2023-004AH","EPOCH":"2026-06-02T01:52:12.975744","MEAN_MOTION":13.18688316,"ECCENTRICITY":0.0001894,"INCLINATION":87.9164,"RA_OF_ASC_NODE":338.4423,"ARG_OF_PERICENTER":105.824,"MEAN_ANOMALY":254.3101,"EPHEMERIS_TYPE":0,"CLASSIFICATION_TYPE":"U","NORAD_CAT_ID":55171,"ELEMENT_SET_NO":999,"REV_AT_EPOCH":16768,"BSTAR":0.00017239,"MEAN_MOTION_DOT":8.1e-07,"MEAN_MOTION_DDOT":0.0},{"OBJECT_NAME":"ONEWEB-0709","OBJECT_ID":"2023-004AJ","EPOCH":"2026-06-02T04:10:23.390112","MEAN_MOTION":13.11417295,"ECCENTRICITY":0.0001188,"INCLINATION":87.8898,"RA_OF_ASC_NODE":24.0678,"ARG_OF_PERICENTER":110.6189,"MEAN_ANOMALY":249.5066,"EPHEMERIS_TYPE":0,"CLASSIFICATION_TYPE":"U","NORAD_CAT_ID":55172,"ELEMENT_SET_NO":999,"REV_AT_EPOCH":16390,"BSTAR":0.0012203000000000001,"MEAN_MOTION_DOT":4.45e-06,"MEAN_MOTION_DDOT":0.0},{"OBJECT_NAME":"ONEWEB-0710","OBJECT_ID":"2023-004AK","EPOCH":"2026-06-02T02:13:10.700544","MEAN_MOTION":13.17650686,"ECCENTRICITY":0.0001994,"INCLINATION":87.9142,"RA_OF_ASC_NODE":8.8683,"ARG_OF_PERICENTER":88.3925,"MEAN_ANOMALY":271.7435,"EPHEMERIS_TYPE":0,"CLASSIFICATION_TYPE":"U","NORAD_CAT_ID":55173,"ELEMENT_SET_NO":999,"REV_AT_EPOCH":16559,"BSTAR":6.8735e-05,"MEAN_MOTION_DOT":4e-07,"MEAN_MOTION_DDOT":0.0},{"OBJECT_NAME":"ONEWEB-0711","OBJECT_ID":"2023-004AL","EPOCH":"2026-06-02T16:17:58.001856","MEAN_MOTION":13.11419105,"ECCENTRICITY":0.0002494,"INCLINATION":87.8902,"RA_OF_ASC_NODE":23.9538,"ARG_OF_PERICENTER":91.3337,"MEAN_ANOMALY":268.8077,"EPHEMERIS_TYPE":0,"CLASSIFICATION_TYPE":"U","NORAD_CAT_ID":55174,"ELEMENT_SET_NO":999,"REV_AT_EPOCH":16393,"BSTAR":-0.00085026,"MEAN_MOTION_DOT":-2.89e-06,"MEAN_MOTION_DDOT":0.0},{"OBJECT_NAME":"ONEWEB-0713","OBJECT_ID":"2023-004AM","EPOCH":"2026-06-02T03:55:44.800608","MEAN_MOTION":13.11418217,"ECCENTRICITY":0.0002141,"INCLINATION":87.8903,"RA_OF_ASC_NODE":24.0572,"ARG_OF_PERICENTER":88.48,"MEAN_ANOMALY":271.6574,"EPHEMERIS_TYPE":0,"CLASSIFICATION_TYPE":"U","NORAD_CAT_ID":55175,"ELEMENT_SET_NO":999,"REV_AT_EPOCH":16385,"BSTAR":0.0018009,"MEAN_MOTION_DOT":6.51e-06,"MEAN_MOTION_DDOT":0.0},{"OBJECT_NAME":"ONEWEB-0715","OBJECT_ID":"2023-004AN","EPOCH":"2026-06-02T03:48:25.390080","MEAN_MOTION":13.11416277,"ECCENTRICITY":0.0001635,"INCLINATION":87.89,"RA_OF_ASC_NODE":24.0603,"ARG_OF_PERICENTER":109.3979,"MEAN_ANOMALY":250.7326,"EPHEMERIS_TYPE":0,"CLASSIFICATION_TYPE":"U","NORAD_CAT_ID":55176,"ELEMENT_SET_NO":999,"REV_AT_EPOCH":16389,"BSTAR":0.0022140000000000003,"MEAN_MOTION_DOT":7.97e-06,"MEAN_MOTION_DDOT":0.0},{"OBJECT_NAME":"ONEWEB-0716","OBJECT_ID":"2023-004AP","EPOCH":"2026-06-02T02:03:27.443520","MEAN_MOTION":13.17650803,"ECCENTRICITY":0.0001702,"INCLINATION":87.9144,"RA_OF_ASC_NODE":8.8724,"ARG_OF_PERICENTER":78.8059,"MEAN_ANOMALY":281.3264,"EPHEMERIS_TYPE":0,"CLASSIFICATION_TYPE":"U","NORAD_CAT_ID":55177,"ELEMENT_SET_NO":999,"REV_AT_EPOCH":16559,"BSTAR":0.00014988000000000002,"MEAN_MOTION_DOT":7.1e-07,"MEAN_MOTION_DDOT":0.0},{"OBJECT_NAME":"ONEWEB-0717","OBJECT_ID":"2023-004AQ","EPOCH":"2026-06-02T03:28:30.180864","MEAN_MOTION":13.17652482,"ECCENTRICITY":0.0002305,"INCLINATION":87.9155,"RA_OF_ASC_NODE":8.8471,"ARG_OF_PERICENTER":97.1068,"MEAN_ANOMALY":263.0326,"EPHEMERIS_TYPE":0,"CLASSIFICATION_TYPE":"U","NORAD_CAT_ID":55178,"ELEMENT_SET_NO":999,"REV_AT_EPOCH":16565,"BSTAR":-2.0181e-06,"MEAN_MOTION_DOT":1.2e-07,"MEAN_MOTION_DDOT":0.0},{"OBJECT_NAME":"ONEWEB-0719","OBJECT_ID":"2023-004AR","EPOCH":"2026-06-02T03:43:05.319552","MEAN_MOTION":13.17650797,"ECCENTRICITY":0.0001861,"INCLINATION":87.9152,"RA_OF_ASC_NODE":8.8254,"ARG_OF_PERICENTER":80.6496,"MEAN_ANOMALY":279.4846,"EPHEMERIS_TYPE":0,"CLASSIFICATION_TYPE":"U","NORAD_CAT_ID":55179,"ELEMENT_SET_NO":999,"REV_AT_EPOCH":16560,"BSTAR":0.00019475999999999999,"MEAN_MOTION_DOT":8.8e-07,"MEAN_MOTION_DDOT":0.0},{"OBJECT_NAME":"ONEWEB-0530","OBJECT_ID":"2023-029A","EPOCH":"2026-06-02T16:42:26.457984","MEAN_MOTION":13.20770161,"ECCENTRICITY":0.0002379,"INCLINATION":87.9177,"RA_OF_ASC_NODE":277.3587,"ARG_OF_PERICENTER":97.5461,"MEAN_ANOMALY":262.5943,"EPHEMERIS_TYPE":0,"CLASSIFICATION_TYPE":"U","NORAD_CAT_ID":55796,"ELEMENT_SET_NO":999,"REV_AT_EPOCH":15923,"BSTAR":7.4622e-05,"MEAN_MOTION_DOT":4.3e-07,"MEAN_MOTION_DDOT":0.0},{"OBJECT_NAME":"ONEWEB-0534","OBJECT_ID":"2023-029B","EPOCH":"2026-06-02T07:20:00.994848","MEAN_MOTION":13.20770554,"ECCENTRICITY":0.0001832,"INCLINATION":87.9177,"RA_OF_ASC_NODE":277.4368,"ARG_OF_PERICENTER":97.9868,"MEAN_ANOMALY":262.1473,"EPHEMERIS_TYPE":0,"CLASSIFICATION_TYPE":"U","NORAD_CAT_ID":55797,"ELEMENT_SET_NO":999,"REV_AT_EPOCH":15918,"BSTAR":0.00021352,"MEAN_MOTION_DOT":1e-06,"MEAN_MOTION_DDOT":0.0},{"OBJECT_NAME":"ONEWEB-0556","OBJECT_ID":"2023-029C","EPOCH":"2026-06-02T07:29:44.600064","MEAN_MOTION":13.20772259,"ECCENTRICITY":0.0002153,"INCLINATION":87.9174,"RA_OF_ASC_NODE":277.4355,"ARG_OF_PERICENTER":75.7765,"MEAN_ANOMALY":284.3607,"EPHEMERIS_TYPE":0,"CLASSIFICATION_TYPE":"U","NORAD_CAT_ID":55798,"ELEMENT_SET_NO":999,"REV_AT_EPOCH":15918,"BSTAR":-0.00011004,"MEAN_MOTION_DOT":-3.2e-07,"MEAN_MOTION_DDOT":0.0},{"OBJECT_NAME":"ONEWEB-0562","OBJECT_ID":"2023-029D","EPOCH":"2026-06-02T07:10:18.804864","MEAN_MOTION":13.20772395,"ECCENTRICITY":0.000268,"INCLINATION":87.9172,"RA_OF_ASC_NODE":277.4191,"ARG_OF_PERICENTER":87.1861,"MEAN_ANOMALY":272.9579,"EPHEMERIS_TYPE":0,"CLASSIFICATION_TYPE":"U","NORAD_CAT_ID":55799,"ELEMENT_SET_NO":999,"REV_AT_EPOCH":15918,"BSTAR":8.850500000000001e-05,"MEAN_MOTION_DOT":4.9e-07,"MEAN_MOTION_DDOT":0.0},{"OBJECT_NAME":"ONEWEB-0563","OBJECT_ID":"2023-029E","EPOCH":"2026-06-02T07:03:03.957984","MEAN_MOTION":13.20772387,"ECCENTRICITY":0.0001721,"INCLINATION":87.9171,"RA_OF_ASC_NODE":277.4512,"ARG_OF_PERICENTER":93.3948,"MEAN_ANOMALY":266.7382,"EPHEMERIS_TYPE":0,"CLASSIFICATION_TYPE":"U","NORAD_CAT_ID":55800,"ELEMENT_SET_NO":999,"REV_AT_EPOCH":15917,"BSTAR":0.00018969,"MEAN_MOTION_DOT":9e-07,"MEAN_MOTION_DDOT":0.0},{"OBJECT_NAME":"ONEWEB-0564","OBJECT_ID":"2023-029F","EPOCH":"2026-06-02T06:53:21.714432","MEAN_MOTION":13.20773464,"ECCENTRICITY":0.0002273,"INCLINATION":87.9175,"RA_OF_ASC_NODE":277.4248,"ARG_OF_PERICENTER":93.7428,"MEAN_ANOMALY":266.3965,"EPHEMERIS_TYPE":0,"CLASSIFICATION_TYPE":"U","NORAD_CAT_ID":55801,"ELEMENT_SET_NO":999,"REV_AT_EPOCH":15918,"BSTAR":0.00036442,"MEAN_MOTION_DOT":1.61e-06,"MEAN_MOTION_DDOT":0.0},{"OBJECT_NAME":"ONEWEB-0638","OBJECT_ID":"2023-029G","EPOCH":"2026-05-31T21:00:43.869600","MEAN_MOTION":13.14501808,"ECCENTRICITY":0.0002122,"INCLINATION":87.8941,"RA_OF_ASC_NODE":293.0056,"ARG_OF_PERICENTER":84.3014,"MEAN_ANOMALY":275.8358,"EPHEMERIS_TYPE":0,"CLASSIFICATION_TYPE":"U","NORAD_CAT_ID":55802,"ELEMENT_SET_NO":999,"REV_AT_EPOCH":15725,"BSTAR":-0.00066838,"MEAN_MOTION_DOT":-2.35e-06,"MEAN_MOTION_DDOT":0.0},{"OBJECT_NAME":"ONEWEB-0639","OBJECT_ID":"2023-029H","EPOCH":"2026-06-02T07:45:46.949184","MEAN_MOTION":13.19726309,"ECCENTRICITY":7.91e-05,"INCLINATION":87.9156,"RA_OF_ASC_NODE":307.9381,"ARG_OF_PERICENTER":90.6831,"MEAN_ANOMALY":269.4392,"EPHEMERIS_TYPE":0,"CLASSIFICATION_TYPE":"U","NORAD_CAT_ID":55803,"ELEMENT_SET_NO":999,"REV_AT_EPOCH":15694,"BSTAR":-4.9340000000000005e-05,"MEAN_MOTION_DOT":-7e-08,"MEAN_MOTION_DDOT":0.0},{"OBJECT_NAME":"ONEWEB-0640","OBJECT_ID":"2023-029J","EPOCH":"2026-06-02T07:57:00.805248","MEAN_MOTION":13.14501932,"ECCENTRICITY":0.0001801,"INCLINATION":87.8941,"RA_OF_ASC_NODE":292.7058,"ARG_OF_PERICENTER":76.3047,"MEAN_ANOMALY":283.8283,"EPHEMERIS_TYPE":0,"CLASSIFICATION_TYPE":"U","NORAD_CAT_ID":55804,"ELEMENT_SET_NO":999,"REV_AT_EPOCH":15746,"BSTAR":-0.00044755,"MEAN_MOTION_DOT":-1.53e-06,"MEAN_MOTION_DDOT":0.0},{"OBJECT_NAME":"ONEWEB-0641","OBJECT_ID":"2023-029K","EPOCH":"2026-06-01T11:38:00.304800","MEAN_MOTION":13.1972705,"ECCENTRICITY":0.0001629,"INCLINATION":87.9161,"RA_OF_ASC_NODE":308.0936,"ARG_OF_PERICENTER":96.7668,"MEAN_ANOMALY":263.365,"EPHEMERIS_TYPE":0,"CLASSIFICATION_TYPE":"U","NORAD_CAT_ID":55805,"ELEMENT_SET_NO":999,"REV_AT_EPOCH":15684,"BSTAR":-1.7480000000000002e-05,"MEAN_MOTION_DOT":6e-08,"MEAN_MOTION_DDOT":0.0},{"OBJECT_NAME":"ONEWEB-0642","OBJECT_ID":"2023-029L","EPOCH":"2026-06-01T11:31:11.266464","MEAN_MOTION":13.19726308,"ECCENTRICITY":9.89e-05,"INCLINATION":87.9156,"RA_OF_ASC_NODE":308.1076,"ARG_OF_PERICENTER":104.6792,"MEAN_ANOMALY":255.445,"EPHEMERIS_TYPE":0,"CLASSIFICATION_TYPE":"U","NORAD_CAT_ID":55806,"ELEMENT_SET_NO":999,"REV_AT_EPOCH":15683,"BSTAR":0.00011486000000000001,"MEAN_MOTION_DOT":5.9e-07,"MEAN_MOTION_DDOT":0.0},{"OBJECT_NAME":"ONEWEB-0643","OBJECT_ID":"2023-029M","EPOCH":"2026-06-02T07:13:38.597952","MEAN_MOTION":13.14502007,"ECCENTRICITY":0.000138,"INCLINATION":87.8941,"RA_OF_ASC_NODE":292.6993,"ARG_OF_PERICENTER":118.1688,"MEAN_ANOMALY":241.9582,"EPHEMERIS_TYPE":0,"CLASSIFICATION_TYPE":"U","NORAD_CAT_ID":55807,"ELEMENT_SET_NO":999,"REV_AT_EPOCH":15743,"BSTAR":0.0006578500000000001,"MEAN_MOTION_DOT":2.57e-06,"MEAN_MOTION_DDOT":0.0},{"OBJECT_NAME":"ONEWEB-0644","OBJECT_ID":"2023-029N","EPOCH":"2026-06-01T11:24:20.560608","MEAN_MOTION":13.19720794,"ECCENTRICITY":0.0001631,"INCLINATION":87.9149,"RA_OF_ASC_NODE":308.1107,"ARG_OF_PERICENTER":101.5628,"MEAN_ANOMALY":258.5688,"EPHEMERIS_TYPE":0,"CLASSIFICATION_TYPE":"U","NORAD_CAT_ID":55808,"ELEMENT_SET_NO":999,"REV_AT_EPOCH":15683,"BSTAR":0.0024069,"MEAN_MOTION_DOT":9.77e-06,"MEAN_MOTION_DDOT":0.0}]